[
    {"id":1,  "companyName": "Barton - Haley",                  "street":"219 Ferry Meadow",       "city":"Hartmannville",      "state":"Wyoming",        "zipcode":"00485",      "employees":"10,000-25,000", "revenue":">$1 Billion",      "sector":"Real Estate"},
    {"id":2,  "companyName": "Yundt and Sons",                  "street":"3454 Murray Park",       "city":"Kennyborough",       "state":"New Hampshire",  "zipcode":"31827-0378", "employees":"1-1,000",       "revenue":">$1 Billion",      "sector":"Consumer Staples"},
    {"id":3,  "companyName": "Ernser, Roob and Stokes",         "street":"03619 Brody Stream",     "city":"Volkmanside",        "state":"Alaska",         "zipcode":"81339",      "employees":"1-1,000",       "revenue":"$100-500 Million", "sector":"Financial"},
    {"id":4,  "companyName": "Weimann, Funk and Kihn",          "street":"611 Schmidt Crescent",   "city":"Lake Charityview",   "state":"North Carolina", "zipcode":"20708",      "employees":"25,000-50,000", "revenue":"$0-10 Million",    "sector":"Consumer Staples"},
    {"id":5,  "companyName": "Donnelly LLC",                    "street":"54910 Balistreri Camp",  "city":"Rudyfurt",           "state":"Rhode Island",   "zipcode":"32658-9905", "employees":"10,000-25,000", "revenue":"$100-500 Million", "sector":"Real Estate"},
    {"id":6,  "companyName": "Lindgren - Robel",                "street":"364 Orrin Fork",         "city":"Nicolasville",       "state":"New Jersey",     "zipcode":"12886",      "employees":"1,000-10,000",  "revenue":"$100-500 Million", "sector":"Industrial"},
    {"id":7,  "companyName": "Bahringer Inc",                   "street":"748 Wintheiser Lodge",   "city":"Percivalport",       "state":"Connecticut",    "zipcode":"67883-0029", "employees":"1,000-10,000",  "revenue":">$1 Billion",      "sector":"communications"},
    {"id":8,  "companyName": "Hirthe, Windler and Schoen",      "street":"44159 Bernier Crescent", "city":"Shieldston",         "state":"Hawaii",         "zipcode":"30088",      "employees":"10,000-25,000", "revenue":"$0-10 Million",    "sector":"Financial"},
    {"id":9,  "companyName": "Osinski LLC",                     "street":"43050 Allan Bridge",     "city":"West Reggie",        "state":"Louisiana",      "zipcode":"16506",      "employees":"1-1,000",       "revenue":"$10-100 Million",  "sector":"Financial"},
    {"id":10, "companyName": "Stroman and Sons",                "street":"3576 Cruickshank Mills", "city":"North Odahaven",     "state":"Georgia",        "zipcode":"99085-4180", "employees":"1-1,000",       "revenue":"$10-100 Million",  "sector":"Financial"},
    {"id":11, "companyName": "Gleason Inc",                     "street":"5351 Eugenia Loaf",      "city":"Port Troy",          "state":"Georgia",        "zipcode":"73359",      "employees":"10,000-25,000", "revenue":"$0-10 Million",    "sector":"Consumer Discretionary"},
    {"id":12, "companyName": "Russel - Huels",                  "street":"479 Branson Forge",      "city":"North Margarett",    "state":"Nevada",         "zipcode":"70233",      "employees":"10,000-25,000", "revenue":"$0-10 Million",    "sector":"Materials"},
    {"id":13, "companyName": "Goodwin - Buckridge",             "street":"61459 Barton Keys",      "city":"West Gabriel",       "state":"New Hampshire",  "zipcode":"57550",      "employees":"25,000-50,000", "revenue":"$100-500 Million", "sector":"Technology"},
    {"id":14, "companyName": "Larkin, Heaney and Berge",        "street":"221 Gerlach Tunnel",     "city":"Labadieberg",        "state":"Tennessee",      "zipcode":"57932",      "employees":"25,000-50,000", "revenue":"$0-10 Million",    "sector":"Consumer Staples"},
    {"id":15, "companyName": "Effertz Inc",                     "street":"5541 Dare Bypass",       "city":"Parisianville",      "state":"California",     "zipcode":"80617-2887", "employees":">50,000",       "revenue":"$0-10 Million",    "sector":"Real Estate"},
    {"id":16, "companyName": "Hane, Klocko and Swift",          "street":"47350 Smith Islands",    "city":"South Libbyfurt",    "state":"Missouri",       "zipcode":"75620-1777", "employees":"1,000-10,000",  "revenue":"$10-100 Million",  "sector":"communications"},
    {"id":17, "companyName": "Little, Johnston and Leannon",    "street":"128 Santiago Junctions", "city":"Lyricland",          "state":"Hawaii",         "zipcode":"25819-1760", "employees":"1-1,000",       "revenue":"$100-500 Million", "sector":"communications"},
    {"id":18, "companyName": "VonRueden, McClure and Beer",     "street":"688 Harvey Turnpike",    "city":"Adrianfurt",         "state":"Alabama",        "zipcode":"26917-0272", "employees":"10,000-25,000", "revenue":"$0-10 Million",    "sector":"Utilities"},
    {"id":19, "companyName": "Wisoky - Toy",                    "street":"984 Maude Island",       "city":"New Serenity",       "state":"Rhode Island",   "zipcode":"22586",      "employees":">50,000",       "revenue":"$100-500 Million", "sector":"Technology"},
    {"id":20, "companyName": "Corkery Inc",                     "street":"1823 Alyson Crossing",   "city":"McGlynnshire",       "state":"Hawaii",         "zipcode":"68924-6586", "employees":"25,000-50,000", "revenue":"$0.5 - 1 Billion", "sector":"Industrial"},
    {"id":21, "companyName": "Welch LLC",                       "street":"06711 Graham Springs",   "city":"New Tanyaborough",   "state":"Louisiana",      "zipcode":"31253-5379", "employees":"25,000-50,000", "revenue":"$10-100 Million",  "sector":"Real Estate"},
    {"id":22, "companyName": "Ruecker, Hegmann and Collins",    "street":"186 Jordane Crescent",   "city":"East Zechariahside", "state":"Pennsylvania",   "zipcode":"53315",      "employees":"25,000-50,000", "revenue":"$10-100 Million",  "sector":"Consumer Discretionary"},
    {"id":23, "companyName": "Gutkowski, Stracke and Mosciski", "street":"15441 Jaclyn Ramp",      "city":"Lake Jeramyport",    "state":"Ohio",           "zipcode":"55124-3563", "employees":">50,000",       "revenue":"$10-100 Million",  "sector":"Healthcare"},
    {"id":24, "companyName": "Rice and Sons",                   "street":"95193 Marks Harbors",    "city":"Lake Arno",          "state":"New Mexico",     "zipcode":"85032-1321", "employees":"1,000-10,000",  "revenue":"$100-500 Million", "sector":"Technology"},
    {"id":25, "companyName": "McCullough, Little and Hegmann",  "street":"47600 Taryn Summit",     "city":"East Selina",        "state":"Rhode Island",   "zipcode":"02669-0104", "employees":">50,000",       "revenue":">$1 Billion",      "sector":"Consumer Staples"}
]
